2020/09/14
UUEE 141530Z 26005MPS 9999 BKN016 13/09 Q1016 R24L/CLRD62 R24R/190057 NOSIG
